[
  {
    "COMMENT": "GENERATED VIA SPACETRACK.ORG API",
    "ORIGINATOR": "18 SPCS",
    "NORAD_CAT_ID": "54754",
    "OBJECT_NAME": "SWOT",
    "OBJECT_TYPE": "PAYLOAD",
    "CLASSIFICATION_TYPE": "U",
    "INTLDES": "22173A",
    "EPOCH": "2023-09-26 13:25:48",
    "EPOCH_MICROSECONDS": "704736",
    "MEAN_MOTION": "14.00173434",
    "ECCENTRICITY": "0.0000072",
    "INCLINATION": "77.6086",
    "RA_OF_ASC_NODE": "297.9545",
    "ARG_OF_PERICENTER": "49.1504",
    "MEAN_ANOMALY": "310.9653",
    "EPHEMERIS_TYPE": "0",
    "ELEMENT_SET_NO": "999",
    "REV_AT_EPOCH": "3995",
    "BSTAR": "0.0001029",
    "MEAN_MOTION_DOT": "0.00000149",
    "MEAN_MOTION_DDOT": "0",
    "FILE": "4017272",
    "TLE_LINE0": "0 SWOT",
    "TLE_LINE1": "1 54754U 22173A   23269.55959149  .00000149  00000-0  10290-3 0  9998",
    "TLE_LINE2": "2 54754  77.6086 297.9545 0000072  49.1504 310.9653 14.00173434 39954",
    "OBJECT_ID": "2022-173A",
    "OBJECT_NUMBER": "54754",
    "SEMIMAJOR_AXIS": "7271.332",
    "PERIOD": "102.844",
    "APOGEE": "893.249",
    "PERIGEE": "893.144",
    "DECAYED": "0"
  },
  {
    "COMMENT": "GENERATED VIA SPACETRACK.ORG API",
    "ORIGINATOR": "18 SPCS",
    "NORAD_CAT_ID": "54754",
    "OBJECT_NAME": "SWOT",
    "OBJECT_TYPE": "PAYLOAD",
    "CLASSIFICATION_TYPE": "U",
    "INTLDES": "22173A",
    "EPOCH": "2023-09-26 20:17:23",
    "EPOCH_MICROSECONDS": "231328",
    "MEAN_MOTION": "14.00173527",
    "ECCENTRICITY": "0.0000075",
    "INCLINATION": "77.6085",
    "RA_OF_ASC_NODE": "297.5686",
    "ARG_OF_PERICENTER": "45.2141",
    "MEAN_ANOMALY": "314.9017",
    "EPHEMERIS_TYPE": "0",
    "ELEMENT_SET_NO": "999",
    "REV_AT_EPOCH": "3999",
    "BSTAR": "0.00010171",
    "MEAN_MOTION_DOT": "0.00000147",
    "MEAN_MOTION_DDOT": "0",
    "FILE": "4017567",
    "TLE_LINE0": "0 SWOT",
    "TLE_LINE1": "1 54754U 22173A   23269.84540777  .00000147  00000-0  10171-3 0  9999",
    "TLE_LINE2": "2 54754  77.6085 297.5686 0000075  45.2141 314.9017 14.00173527 39997",
    "OBJECT_ID": "2022-173A",
    "OBJECT_NUMBER": "54754",
    "SEMIMAJOR_AXIS": "7271.331",
    "PERIOD": "102.844",
    "APOGEE": "893.251",
    "PERIGEE": "893.142",
    "DECAYED": "0"
  },
  {
    "COMMENT": "GENERATED VIA SPACETRACK.ORG API",
    "ORIGINATOR": "18 SPCS",
    "NORAD_CAT_ID": "54754",
    "OBJECT_NAME": "SWOT",
    "OBJECT_TYPE": "PAYLOAD",
    "CLASSIFICATION_TYPE": "U",
    "INTLDES": "22173A",
    "EPOCH": "2023-09-27 01:26:04",
    "EPOCH_MICROSECONDS": "126272",
    "MEAN_MOTION": "14.00173578",
    "ECCENTRICITY": "0.0000073",
    "INCLINATION": "77.6085",
    "RA_OF_ASC_NODE": "297.2792",
    "ARG_OF_PERICENTER": "46.1415",
    "MEAN_ANOMALY": "313.9743",
    "EPHEMERIS_TYPE": "0",
    "ELEMENT_SET_NO": "999",
    "REV_AT_EPOCH": "4002",
    "BSTAR": "0.000094477",
    "MEAN_MOTION_DOT": "0.00000137",
    "MEAN_MOTION_DDOT": "0",
    "FILE": "4017855",
    "TLE_LINE0": "0 SWOT",
    "TLE_LINE1": "1 54754U 22173A   23270.05976998  .00000137  00000-0  94477-4 0  9993",
    "TLE_LINE2": "2 54754  77.6085 297.2792 0000073  46.1415 313.9743 14.00173578 40021",
    "OBJECT_ID": "2022-173A",
    "OBJECT_NUMBER": "54754",
    "SEMIMAJOR_AXIS": "7271.331",
    "PERIOD": "102.844",
    "APOGEE": "893.249",
    "PERIGEE": "893.143",
    "DECAYED": "0"
  },
  {
    "COMMENT": "GENERATED VIA SPACETRACK.ORG API",
    "ORIGINATOR": "18 SPCS",
    "NORAD_CAT_ID": "54754",
    "OBJECT_NAME": "SWOT",
    "OBJECT_TYPE": "PAYLOAD",
    "CLASSIFICATION_TYPE": "U",
    "INTLDES": "22173A",
    "EPOCH": "2023-09-27 11:43:25",
    "EPOCH_MICROSECONDS": "916160",
    "MEAN_MOTION": "14.00173641",
    "ECCENTRICITY": "0.000007",
    "INCLINATION": "77.6085",
    "RA_OF_ASC_NODE": "296.7003",
    "ARG_OF_PERICENTER": "37.6205",
    "MEAN_ANOMALY": "322.4952",
    "EPHEMERIS_TYPE": "0",
    "ELEMENT_SET_NO": "999",
    "REV_AT_EPOCH": "4008",
    "BSTAR": "0.000081954",
    "MEAN_MOTION_DOT": "0.00000118",
    "MEAN_MOTION_DDOT": "0",
    "FILE": "4018203",
    "TLE_LINE0": "0 SWOT",
    "TLE_LINE1": "1 54754U 22173A   23270.48849440  .00000118  00000-0  81954-4 0  9996",
    "TLE_LINE2": "2 54754  77.6085 296.7003 0000070  37.6205 322.4952 14.00173641 40083",
    "OBJECT_ID": "2022-173A",
    "OBJECT_NUMBER": "54754",
    "SEMIMAJOR_AXIS": "7271.331",
    "PERIOD": "102.844",
    "APOGEE": "893.247",
    "PERIGEE": "893.145",
    "DECAYED": "0"
  },
  {
    "COMMENT": "GENERATED VIA SPACETRACK.ORG API",
    "ORIGINATOR": "18 SPCS",
    "NORAD_CAT_ID": "54754",
    "OBJECT_NAME": "SWOT",
    "OBJECT_TYPE": "PAYLOAD",
    "CLASSIFICATION_TYPE": "U",
    "INTLDES": "22173A",
    "EPOCH": "2023-09-28 03:09:28",
    "EPOCH_MICROSECONDS": "589760",
    "MEAN_MOTION": "14.00173789",
    "ECCENTRICITY": "0.0000072",
    "INCLINATION": "77.6084",
    "RA_OF_ASC_NODE": "295.832",
    "ARG_OF_PERICENTER": "29.9842",
    "MEAN_ANOMALY": "330.1314",
    "EPHEMERIS_TYPE": "0",
    "ELEMENT_SET_NO": "999",
    "REV_AT_EPOCH": "4017",
    "BSTAR": "0.000065916",
    "MEAN_MOTION_DOT": "0.00000095",
    "MEAN_MOTION_DDOT": "0",
    "FILE": "4018750",
    "TLE_LINE0": "0 SWOT",
    "TLE_LINE1": "1 54754U 22173A   23271.13158090  .00000095  00000-0  65916-4 0  9997",
    "TLE_LINE2": "2 54754  77.6084 295.8320 0000072  29.9842 330.1314 14.00173789 40178",
    "OBJECT_ID": "2022-173A",
    "OBJECT_NUMBER": "54754",
    "SEMIMAJOR_AXIS": "7271.330",
    "PERIOD": "102.844",
    "APOGEE": "893.248",
    "PERIGEE": "893.143",
    "DECAYED": "0"
  },
  {
    "COMMENT": "GENERATED VIA SPACETRACK.ORG API",
    "ORIGINATOR": "18 SPCS",
    "NORAD_CAT_ID": "54754",
    "OBJECT_NAME": "SWOT",
    "OBJECT_TYPE": "PAYLOAD",
    "CLASSIFICATION_TYPE": "U",
    "INTLDES": "22173A",
    "EPOCH": "2023-09-28 13:26:50",
    "EPOCH_MICROSECONDS": "371872",
    "MEAN_MOTION": "14.00173872",
    "ECCENTRICITY": "0.0000072",
    "INCLINATION": "77.6083",
    "RA_OF_ASC_NODE": "295.2532",
    "ARG_OF_PERICENTER": "20.968",
    "MEAN_ANOMALY": "339.1474",
    "EPHEMERIS_TYPE": "0",
    "ELEMENT_SET_NO": "999",
    "REV_AT_EPOCH": "4023",
    "BSTAR": "0.000056125",
    "MEAN_MOTION_DOT": "0.0000008",
    "MEAN_MOTION_DDOT": "0",
    "FILE": "4019158",
    "TLE_LINE0": "0 SWOT",
    "TLE_LINE1": "1 54754U 22173A   23271.56030523  .00000080  00000-0  56125-4 0  9990",
    "TLE_LINE2": "2 54754  77.6083 295.2532 0000072  20.9680 339.1474 14.00173872 40233",
    "OBJECT_ID": "2022-173A",
    "OBJECT_NUMBER": "54754",
    "SEMIMAJOR_AXIS": "7271.330",
    "PERIOD": "102.844",
    "APOGEE": "893.247",
    "PERIGEE": "893.143",
    "DECAYED": "0"
  },
  {
    "COMMENT": "GENERATED VIA SPACETRACK.ORG API",
    "ORIGINATOR": "18 SPCS",
    "NORAD_CAT_ID": "54754",
    "OBJECT_NAME": "SWOT",
    "OBJECT_TYPE": "PAYLOAD",
    "CLASSIFICATION_TYPE": "U",
    "INTLDES": "22173A",
    "EPOCH": "2023-09-28 20:18:24",
    "EPOCH_MICROSECONDS": "891552",
    "MEAN_MOTION": "14.00173919",
    "ECCENTRICITY": "0.0000077",
    "INCLINATION": "77.6083",
    "RA_OF_ASC_NODE": "294.8673",
    "ARG_OF_PERICENTER": "17.4652",
    "MEAN_ANOMALY": "342.6502",
    "EPHEMERIS_TYPE": "0",
    "ELEMENT_SET_NO": "999",
    "REV_AT_EPOCH": "4027",
    "BSTAR": "0.000049748",
    "MEAN_MOTION_DOT": "0.00000071",
    "MEAN_MOTION_DDOT": "0",
    "FILE": "4019377",
    "TLE_LINE0": "0 SWOT",
    "TLE_LINE1": "1 54754U 22173A   23271.84612143  .00000071  00000-0  49748-4 0  9998",
    "TLE_LINE2": "2 54754  77.6083 294.8673 0000077  17.4652 342.6502 14.00173919 40276",
    "OBJECT_ID": "2022-173A",
    "OBJECT_NUMBER": "54754",
    "SEMIMAJOR_AXIS": "7271.330",
    "PERIOD": "102.844",
    "APOGEE": "893.251",
    "PERIGEE": "893.139",
    "DECAYED": "0"
  },
  {
    "COMMENT": "GENERATED VIA SPACETRACK.ORG API",
    "ORIGINATOR": "18 SPCS",
    "NORAD_CAT_ID": "54754",
    "OBJECT_NAME": "SWOT",
    "OBJECT_TYPE": "PAYLOAD",
    "CLASSIFICATION_TYPE": "U",
    "INTLDES": "22173A",
    "EPOCH": "2023-09-29 11:44:27",
    "EPOCH_MICROSECONDS": "559104",
    "MEAN_MOTION": "14.00174073",
    "ECCENTRICITY": "0.0000072",
    "INCLINATION": "77.6082",
    "RA_OF_ASC_NODE": "293.999",
    "ARG_OF_PERICENTER": "11.7735",
    "MEAN_ANOMALY": "348.3418",
    "EPHEMERIS_TYPE": "0",
    "ELEMENT_SET_NO": "999",
    "REV_AT_EPOCH": "4036",
    "BSTAR": "0.000040669",
    "MEAN_MOTION_DOT": "0.00000057",
    "MEAN_MOTION_DDOT": "0",
    "FILE": "4019950",
    "TLE_LINE0": "0 SWOT",
    "TLE_LINE1": "1 54754U 22173A   23272.48920786  .00000057  00000-0  40669-4 0  9991",
    "TLE_LINE2": "2 54754  77.6082 293.9990 0000072  11.7735 348.3418 14.00174073 40362",
    "OBJECT_ID": "2022-173A",
    "OBJECT_NUMBER": "54754",
    "SEMIMAJOR_AXIS": "7271.329",
    "PERIOD": "102.844",
    "APOGEE": "893.247",
    "PERIGEE": "893.142",
    "DECAYED": "0"
  },
  {
    "COMMENT": "GENERATED VIA SPACETRACK.ORG API",
    "ORIGINATOR": "18 SPCS",
    "NORAD_CAT_ID": "54754",
    "OBJECT_NAME": "SWOT",
    "OBJECT_TYPE": "PAYLOAD",
    "CLASSIFICATION_TYPE": "U",
    "INTLDES": "22173A",
    "EPOCH": "2023-09-29 13:27:21",
    "EPOCH_MICROSECONDS": "189024",
    "MEAN_MOTION": "14.0017408",
    "ECCENTRICITY": "0.0000073",
    "INCLINATION": "77.6082",
    "RA_OF_ASC_NODE": "293.9025",
    "ARG_OF_PERICENTER": "11.4427",
    "MEAN_ANOMALY": "348.6726",
    "EPHEMERIS_TYPE": "0",
    "ELEMENT_SET_NO": "999",
    "REV_AT_EPOCH": "4037",
    "BSTAR": "0.00003761",
    "MEAN_MOTION_DOT": "0.00000053",
    "MEAN_MOTION_DDOT": "0",
    "FILE": "4020020",
    "TLE_LINE0": "0 SWOT",
    "TLE_LINE1": "1 54754U 22173A   23272.56066191  .00000053  00000-0  37610-4 0  9999",
    "TLE_LINE2": "2 54754  77.6082 293.9025 0000073  11.4427 348.6726 14.00174080 40371",
    "OBJECT_ID": "2022-173A",
    "OBJECT_NUMBER": "54754",
    "SEMIMAJOR_AXIS": "7271.329",
    "PERIOD": "102.844",
    "APOGEE": "893.247",
    "PERIGEE": "893.141",
    "DECAYED": "0"
  }
]